KUIPER-00053            
1 64513U 25134P   25215.17368665  .00050335  00000+0  13815-2 0  9996
2 64513  51.8776 134.3964 0001546 248.6471 111.4351 15.36757640  7505
KUIPER-00054            
1 64514U 25134Q   25214.78871094  .00028073  00000+0  78535-3 0  9993
2 64514  51.8753 136.3116 0002519 237.3506 122.7238 15.36441040  7443
KUIPER-00055            
1 64515U 25134R   25215.16204932  .00032931  00000+0  89800-3 0  9993
2 64515  51.8776 134.3208 0000398 131.8232 228.2789 15.37155658  7504
KUIPER-00056            
1 64516U 25134S   25215.18497769  .00056905  00000+0  15822-2 0  9997
2 64516  51.8726 134.4625 0002532 240.3035 119.7699 15.36298426  7507
KUIPER-00057            
1 64517U 25134T   25215.27298328  .00038484  00000+0  11162-2 0  9993
2 64517  51.8691 134.2831 0006551 248.9231 111.1054 15.35137415  7514
KUIPER-00058            
1 64518U 25134U   25215.19400214  .00030693  00000+0  87020-3 0  9995
2 64518  51.8715 134.5215 0004252 274.9861  85.0639 15.35972781  7505
KUIPER-00059            
1 64519U 25134V   25215.03403264  .00036585  00000+0  99622-3 0  9994
2 64519  51.8762 134.9533 0002552 190.0378 170.0558 15.37147225  7488
KUIPER-00060            
1 64520U 25134W   25215.03977780  .00040105  00000+0  10970-2 0  9996
2 64520  51.8769 134.9976 0001808 206.6923 153.3970 15.36965467  7477
